[{"OBJECT_NAME":"STARLINK-35406","OBJECT_ID":"2025-218E","EPOCH":"2026-03-09T14:16:40.761408","MEAN_MOTION":15.05646507,"ECCENTRICITY":0.0003028,"INCLINATION":97.602,"RA_OF_ASC_NODE":292.8324,"ARG_OF_PERICENTER":71.6843,"MEAN_ANOMALY":288.4713,"EPHEMERIS_TYPE":0,"CLASSIFICATION_TYPE":"U","NORAD_CAT_ID":65795,"ELEMENT_SET_NO":999,"REV_AT_EPOCH":2495,"BSTAR":0.00016128,"MEAN_MOTION_DOT":2.267e-5,"MEAN_MOTION_DDOT":0},{"OBJECT_NAME":"COSMOS 886 DEB","OBJECT_ID":"1976-126H","EPOCH":"2026-03-09T13:45:20.274912","MEAN_MOTION":13.34259572,"ECCENTRICITY":0.0780969,"INCLINATION":65.7903,"RA_OF_ASC_NODE":130.587,"ARG_OF_PERICENTER":142.7819,"MEAN_ANOMALY":223.008,"EPHEMERIS_TYPE":0,"CLASSIFICATION_TYPE":"U","NORAD_CAT_ID":9651,"ELEMENT_SET_NO":999,"REV_AT_EPOCH":33873,"BSTAR":0.00068915,"MEAN_MOTION_DOT":1.985e-5,"MEAN_MOTION_DDOT":0}]
